NORAD_CAT_ID,OBJECT_NAME,OBJECT_TYPE,EPOCH,MEAN_MOTION,ECCENTRICITY,INCLINATION,RA_OF_ASC_NODE,ARG_OF_PERICENTER,MEAN_ANOMALY,BSTAR,MEAN_MOTION_DOT,MEAN_MOTION_DDOT,TLE_LINE0,TLE_LINE1,TLE_LINE2,SEMIMAJOR_AXIS,PERIOD,APOGEE,PERIGEE,DECAYED
53244.0,STARLINK-4125,PAYLOAD,2023-02-23 23:22:39,15.08837944,0.0001172,53.2152,145.8256,86.079,274.0336,0.00031025,4.653e-05,0.0,0 STARLINK-4125,1 53244U 22086C   23054.97406514  .00004653  00000-0  31025-3 0  9998,2 53244  53.2152 145.8256 0001172  86.0790 274.0336 15.08837944 33213,6917.887,95.438,540.562,538.941,0.0
53244.0,STARLINK-4125,PAYLOAD,2023-02-24 12:05:44,15.08843324,0.0001225,53.2151,143.4466,87.0702,273.0431,0.00029926,4.478e-05,0.0,0 STARLINK-4125,1 53244U 22086C   23055.50398467  .00004478  00000-0  29926-3 0  9997,2 53244  53.2151 143.4466 0001225  87.0702 273.0431 15.08843324 33799,6917.87,95.437,540.583,538.888,0.0
53244.0,STARLINK-4125,PAYLOAD,2023-02-25 05:34:59,15.08831674,0.0001385,53.2148,140.1753,110.0195,250.0946,4.2739e-05,3.92e-06,0.0,0 STARLINK-4125,1 53244U 22086C   23056.23263036  .00000392  00000-0  42739-4 0  9990,2 53244  53.2148 140.1753 0001385 110.0195 250.0946 15.08831674 33407,6917.906,95.438,540.729,538.813,0.0
53244.0,STARLINK-4125,PAYLOAD,2023-02-25 11:56:32,15.08832816,0.0001192,53.2154,138.9862,97.7213,262.3914,2.9595e-05,1.83e-06,0.0,0 STARLINK-4125,1 53244U 22086C   23056.49759263  .00000183  00000-0  29595-4 0  9993,2 53244  53.2154 138.9862 0001192  97.7213 262.3914 15.08832816 33947,6917.902,95.438,540.592,538.943,0.0
53244.0,STARLINK-4125,PAYLOAD,2023-02-26 05:25:45,15.08855182,0.0001231,53.2154,135.7149,99.7445,260.3686,0.00037181,5.637e-05,0.0,0 STARLINK-4125,1 53244U 22086C   23057.22622358  .00005637  00000-0  37181-3 0  9997,2 53244  53.2154 135.7149 0001231  99.7445 260.3686 15.08855182 33555,6917.834,95.437,540.551,538.847,0.0
53244.0,STARLINK-4125,PAYLOAD,2023-02-26 10:11:55,15.0887272,0.0001164,53.2151,134.8229,99.2034,260.9089,0.001387,0.00021875,0.0,0 STARLINK-4125,1 53244U 22086C   23057.42494327  .00021875  00000-0  13870-2 0  9992,2 53244  53.2151 134.8229 0001164  99.2034 260.9089 15.08872720 34084,6917.78,95.435,540.451,538.84,0.0
53244.0,STARLINK-4125,PAYLOAD,2023-02-26 14:58:03,15.08885746,0.0001176,53.2152,133.9302,104.2671,255.8452,0.0015364,0.00024279,0.0,0 STARLINK-4125,1 53244U 22086C   23057.62365702  .00024279  00000-0  15364-2 0  9999,2 53244  53.2152 133.9302 0001176 104.2671 255.8452 15.08885746 33611,6917.741,95.435,540.419,538.792,0.0
53244.0,STARLINK-4125,PAYLOAD,2023-02-27 02:05:46,15.08836356,9.89e-05,53.2155,131.8493,108.824,251.286,0.00037643,5.708e-05,0.0,0 STARLINK-4125,1 53244U 22086C   23058.08734458  .00005708  00000-0  37643-3 0  9999,2 53244  53.2155 131.8493 0000989 108.8240 251.2860 15.08836356 33688,6917.892,95.438,540.441,539.072,0.0
53244.0,STARLINK-4125,PAYLOAD,2023-02-27 08:27:19,15.08840732,0.0001201,53.2156,130.6601,121.8136,238.2973,0.0015786,0.00024925,0.0,0 STARLINK-4125,1 53244U 22086C   23058.35230556  .00024925  00000-0  15786-2 0  9994,2 53244  53.2156 130.6601 0001201 121.8136 238.2973 15.08840732 34228,6917.878,95.438,540.574,538.912,0.0
53244.0,STARLINK-4125,PAYLOAD,2023-02-27 14:48:51,15.08896936,0.0001125,53.2155,129.4705,114.0382,246.0727,0.0051237,0.00082338,0.0,0 STARLINK-4125,1 53244U 22086C   23058.61726172  .00082338  00000-0  51237-2 0  9990,2 53244  53.2155 129.4705 0001125 114.0382 246.0727 15.08896936 33769,6917.706,95.434,540.35,538.793,0.0
53244.0,STARLINK-4125,PAYLOAD,2023-02-28 05:07:19,15.08872476,0.0001163,53.2157,126.7928,110.8985,249.2131,0.0018572,0.00029419,0.0,0 STARLINK-4125,1 53244U 22086C   23059.21341912  .00029419  00000-0  18572-2 0  9998,2 53244  53.2157 126.7928 0001163 110.8985 249.2131 15.08872476 33850,6917.781,95.436,540.451,538.842,0.0
53244.0,STARLINK-4125,PAYLOAD,2023-02-28 11:28:51,15.08868331,9.35e-05,53.2156,125.6046,103.6717,256.4379,0.0013315,0.00020983,0.0,0 STARLINK-4125,1 53244U 22086C   23059.47837575  .00020983  00000-0  13315-2 0  9998,2 53244  53.2156 125.6046 0000935 103.6717 256.4379 15.08868331 34396,6917.794,95.436,540.306,539.012,0.0
53244.0,STARLINK-4125,PAYLOAD,2023-02-28 21:01:11,15.08833853,0.0001683,53.2165,123.8193,77.2857,282.8323,0.00081258,0.00012666,0.0,0 STARLINK-4125,1 53244U 22086C   23059.87582183  .00012666  00000-0  81258-3 0  9995,2 53244  53.2165 123.8193 0001683  77.2857 282.8323 15.08833853 34451,6917.899,95.438,540.928,538.6,0.0
53244.0,STARLINK-4125,PAYLOAD,2023-03-01 03:22:44,15.08794039,0.000182,53.2163,122.6315,93.7071,266.4129,-0.00025288,-4.305e-05,0.0,0 STARLINK-4125,1 53244U 22086C   23060.14079381 -.00004305  00000-0 -25288-3 0  9992,2 53244  53.2163 122.6315 0001820  93.7071 266.4129 15.08794039 33998,6918.021,95.44,541.145,538.627,0.0
53244.0,STARLINK-4125,PAYLOAD,2023-03-01 20:52:00,15.08814002,0.000141,53.2161,119.3597,79.6082,280.5069,0.0017849,0.00028213,0.0,0 STARLINK-4125,1 53244U 22086C   23060.86945507  .00028213  00000-0  17849-2 0  9998,2 53244  53.2161 119.3597 0001410  79.6082 280.5069 15.08814002 34603,6917.96,95.439,540.8,538.849,0.0
53244.0,STARLINK-4125,PAYLOAD,2023-03-02 03:13:33,15.08835564,0.0001462,53.2162,118.1699,79.5138,280.6019,0.0018938,0.00029977,0.0,0 STARLINK-4125,1 53244U 22086C   23061.13441640  .00029977  00000-0  18938-2 0  9996,2 53244  53.2162 118.1699 0001462  79.5138 280.6019 15.08835564 34143,6917.894,95.438,540.77,538.748,0.0
53244.0,STARLINK-4125,PAYLOAD,2023-03-02 11:10:28,15.08863708,0.0001384,53.2156,116.6843,80.3203,279.7946,0.0021193,0.00033624,0.0,0 STARLINK-4125,1 53244U 22086C   23061.46561205  .00033624  00000-0  21193-2 0  9993,2 53244  53.2156 116.6843 0001384  80.3203 279.7946 15.08863708 34190,6917.808,95.436,540.63,538.715,0.0
53244.0,STARLINK-4125,PAYLOAD,2023-03-03 07:50:28,15.08897555,0.0001729,53.2164,112.8187,80.058,280.0607,0.0029442,0.00046956,0.0,0 STARLINK-4125,1 53244U 22086C   23062.32672172  .00046956  00000-0  29442-2 0  9992,2 53244  53.2164 112.8187 0001729  80.0580 280.0607 15.08897555 34327,6917.704,95.434,540.766,538.373,0.0
53244.0,STARLINK-4125,PAYLOAD,2023-03-03 12:36:37,15.08886052,0.0002039,53.2165,111.9273,64.4613,295.659,0.0014657,0.00023145,0.0,0 STARLINK-4125,1 53244U 22086C   23062.52543748  .00023145  00000-0  14657-2 0  9997,2 53244  53.2165 111.9273 0002039  64.4613 295.6590 15.08886052 34358,6917.74,95.435,541.015,538.194,0.0
53244.0,STARLINK-4125,PAYLOAD,2023-03-03 20:33:33,15.08869524,0.0001592,53.2155,110.4394,89.0237,271.0937,0.00063923,9.908e-05,0.0,0 STARLINK-4125,1 53244U 22086C   23062.85663224  .00009908  00000-0  63923-3 0  9997,2 53244  53.2155 110.4394 0001592  89.0237 271.0937 15.08869524 34902,6917.79,95.436,540.756,538.554,0.0
53244.0,STARLINK-4125,PAYLOAD,2023-03-04 02:55:05,15.0885945,0.0002272,53.2161,109.2511,88.543,271.5822,0.0010534,0.00016526,0.0,0 STARLINK-4125,1 53244U 22086C   23063.12159545  .00016526  00000-0  10534-2 0  9997,2 53244  53.2161 109.2511 0002272  88.5430 271.5822 15.08859450 34445,6917.821,95.436,541.258,538.114,0.0
53244.0,STARLINK-4125,PAYLOAD,2023-03-04 09:16:38,15.08848581,0.0001537,53.2168,108.061,93.0458,267.071,6.6768e-05,7.75e-06,0.0,0 STARLINK-4125,1 53244U 22086C   23063.38655290  .00000775  00000-0  66768-4 0  9994,2 53244  53.2168 108.0610 0001537  93.0458 267.0710 15.08848581 34486,6917.854,95.437,540.782,538.656,0.0
53244.0,STARLINK-4125,PAYLOAD,2023-03-04 20:24:20,15.08844862,0.0001567,53.2154,105.9824,60.0989,300.0158,0.00013073,1.793e-05,0.0,0 STARLINK-4125,1 53244U 22086C   23063.85023605  .00001793  00000-0  13073-3 0  9996,2 53244  53.2154 105.9824 0001567  60.0989 300.0158 15.08844862 35056,6917.866,95.437,540.815,538.646,0.0
53244.0,STARLINK-4125,PAYLOAD,2023-03-05 02:45:53,15.08838114,0.0001697,53.2169,104.7882,87.9284,272.1902,7.4177e-05,8.93e-06,0.0,0 STARLINK-4125,1 53244U 22086C   23064.11519827  .00000893  00000-0  74177-4 0  9995,2 53244  53.2169 104.7882 0001697  87.9284 272.1902 15.08838114 34590,6917.886,95.438,540.925,538.577,0.0
53244.0,STARLINK-4125,PAYLOAD,2023-03-05 07:32:02,15.08838903,0.0001502,53.2165,103.8958,100.8703,259.2458,7.0811e-06,-1.75e-06,0.0,0 STARLINK-4125,1 53244U 22086C   23064.31391815 -.00000175  00000-0  70811-5 0  9998,2 53244  53.2165 103.8958 0001502 100.8703 259.2458 15.08838903 35124,6917.884,95.438,540.788,538.71,0.0
53244.0,STARLINK-4125,PAYLOAD,2023-03-06 05:47:26,15.08853058,0.0001287,53.2163,99.7316,107.1601,252.9532,0.00050288,7.727e-05,0.0,0 STARLINK-4125,1 53244U 22086C   23065.24127502  .00007727  00000-0  50288-3 0  9994,2 53244  53.2163  99.7316 0001287 107.1601 252.9532 15.08853058 34760,6917.84,95.437,540.596,538.815,0.0
53244.0,STARLINK-4125,PAYLOAD,2023-03-06 08:58:12,15.08860834,0.000137,53.2166,99.1373,103.7496,256.3649,0.00075764,0.00011797,0.0,0 STARLINK-4125,1 53244U 22086C   23065.37375334  .00011797  00000-0  75764-3 0  9994,2 53244  53.2166  99.1373 0001370 103.7496 256.3649 15.08860834 35282,6917.817,95.436,540.629,538.734,0.0
53244.0,STARLINK-4125,PAYLOAD,2023-03-07 02:27:27,15.08841202,0.0001294,53.216,95.8665,113.3915,246.7214,0.00011431,1.532e-05,0.0,0 STARLINK-4125,1 53244U 22086C   23066.10239875  .00001532  00000-0  11431-3 0  9992,2 53244  53.2160  95.8665 0001294 113.3915 246.7214 15.08841202 34896,6917.877,95.437,540.637,538.847,0.0
53244.0,STARLINK-4125,PAYLOAD,2023-03-07 11:59:46,15.08845537,0.0001271,53.2167,94.0835,112.7359,247.3768,0.00066042,0.0001024,0.0,0 STARLINK-4125,1 53244U 22086C   23066.49983976  .00010240  00000-0  66042-3 0  9996,2 53244  53.2167  94.0835 0001271 112.7359 247.3768 15.08845537 35452,6917.863,95.437,540.608,538.849,0.0
53244.0,STARLINK-4125,PAYLOAD,2023-03-08 02:18:14,15.08835357,0.0001394,53.216,91.4072,111.4714,248.6427,0.00025068,3.703e-05,0.0,0 STARLINK-4125,1 53244U 22086C   23067.09600496  .00003703  00000-0  25068-3 0  9995,2 53244  53.2160  91.4072 0001394 111.4714 248.6427 15.08835357 35046,6917.895,95.438,540.724,538.795,0.0
